[{"OBJECT_NAME":"GAOFEN-12 03","OBJECT_ID":"2022-069A","EPOCH":"2026-03-09T22:26:41.020800","MEAN_MOTION":14.79856399,"ECCENTRICITY":0.00023242,"INCLINATION":97.8403,"RA_OF_ASC_NODE":319.2501,"ARG_OF_PERICENTER":91.8845,"MEAN_ANOMALY":268.2634,"EPHEMERIS_TYPE":0,"CLASSIFICATION_TYPE":"U","NORAD_CAT_ID":52912,"ELEMENT_SET_NO":999,"REV_AT_EPOCH":19993,"BSTAR":0.00029245071,"MEAN_MOTION_DOT":2.154e-5,"MEAN_MOTION_DDOT":0},{"OBJECT_NAME":"CZ-6A DEB","OBJECT_ID":"2024-140MA","EPOCH":"2026-03-09T13:52:00.344928","MEAN_MOTION":14.57677332,"ECCENTRICITY":0.0127216,"INCLINATION":88.9606,"RA_OF_ASC_NODE":279.4316,"ARG_OF_PERICENTER":237.8562,"MEAN_ANOMALY":121.0255,"EPHEMERIS_TYPE":0,"CLASSIFICATION_TYPE":"U","NORAD_CAT_ID":60975,"ELEMENT_SET_NO":999,"REV_AT_EPOCH":8258,"BSTAR":0.00032943,"MEAN_MOTION_DOT":1.697e-5,"MEAN_MOTION_DDOT":0}]
